[{"OBJECT_NAME":"YAOGAN-30 02C","OBJECT_ID":"2017-058C","EPOCH":"2026-03-09T23:23:41.320320","MEAN_MOTION":15.0385567,"ECCENTRICITY":0.00042194,"INCLINATION":34.9965,"RA_OF_ASC_NODE":266.8068,"ARG_OF_PERICENTER":49.9722,"MEAN_ANOMALY":310.1357,"EPHEMERIS_TYPE":0,"CLASSIFICATION_TYPE":"U","NORAD_CAT_ID":42947,"ELEMENT_SET_NO":999,"REV_AT_EPOCH":46087,"BSTAR":0.00031396475,"MEAN_MOTION_DOT":4.384e-5,"MEAN_MOTION_DDOT":0},{"OBJECT_NAME":"STARLINK-5101","OBJECT_ID":"2022-177C","EPOCH":"2026-03-09T13:11:46.746240","MEAN_MOTION":15.02701513,"ECCENTRICITY":8.39e-5,"INCLINATION":43.0022,"RA_OF_ASC_NODE":134.1477,"ARG_OF_PERICENTER":218.1552,"MEAN_ANOMALY":141.9231,"EPHEMERIS_TYPE":0,"CLASSIFICATION_TYPE":"U","NORAD_CAT_ID":54822,"ELEMENT_SET_NO":999,"REV_AT_EPOCH":17693,"BSTAR":0.0014935,"MEAN_MOTION_DOT":0.00020117,"MEAN_MOTION_DDOT":0}]
